VCC B                   
1 44431U 98067QR  20114.62418688  .00011509  00000-0  16669-3 0  9994
2 44431  51.6401 250.0371 0002747 130.2357 229.8875 15.56371591 45906
ATL-1                   
1 44830U 19084G   20114.72559960  .00046788  00000-0  32588-3 0  9994
2 44830  96.9829 343.5298 0032533  88.5446 271.9546 15.73478897 21836
SMOG-P                  
1 44832U 19084J   20114.88501837  .00048350  00000-0  32643-3 0  9992
2 44832  96.9838 343.7741 0031530  86.7377 273.7494 15.74238586 21867
DUCHIFAT-3              
1 44854U 19089C   20114.87521532  .00000449  00000-0  42745-4 0  9996
2 44854  36.9661  60.8864 0009153 336.6533  23.3818 14.99030347 20105
ORBITAL FACTORY 2 (OF-2)
1 45113U 19071C   20114.79962285  .00001663  00000-0  62670-4 0  9999
2 45113  51.6430 267.5264 0012784 218.4704 141.5368 15.33156077 12745
